[
    {
        "Altitude(m)": 569314.530168552,
        "Argument of Periapsis(deg)": 0.0,
        "Eccentricity": 0.0,
        "Inclination(deg)": 53.0,
        "Latitude(deg)": -46.77322584515093,
        "Longitude(deg)": 27.90610832778843,
        "Mean Anomaly(deg)": -114.54549999999998,
        "RAAN(deg)": 255.0,
        "Satellite Name": "Starlink Shell 1 1137",
        "Satellite Number": 1137,
        "Semi-Major Axis(m)": 6931778.249405717,
        "Time(s)": 0
    },
    {
        "Altitude(m)": 569436.027206919,
        "Argument of Periapsis(deg)": 0.00034857847951123687,
        "Eccentricity": 0.0,
        "Inclination(deg)": 53.0,
        "Latitude(deg)": -47.07203884196852,
        "Longitude(deg)": 28.666708985528228,
        "Mean Anomaly(deg)": -113.9186687964433,
        "RAAN(deg)": 254.9994812299225,
        "Satellite Name": "Starlink Shell 1 1137",
        "Satellite Number": 1137,
        "Semi-Major Axis(m)": 6931778.249405717,
        "Time(s)": 10
    },
    {
        "Altitude(m)": 569555.0014181106,
        "Argument of Periapsis(deg)": 0.0006971569590224737,
        "Eccentricity": 0.0,
        "Inclination(deg)": 53.0,
        "Latitude(deg)": -47.36515676674068,
        "Longitude(deg)": 29.436217220729045,
        "Mean Anomaly(deg)": -113.29183759288658,
        "RAAN(deg)": 254.9989624598451,
        "Satellite Name": "Starlink Shell 1 1137",
        "Satellite Number": 1137,
        "Semi-Major Axis(m)": 6931778.249405717,
        "Time(s)": 20
    },
    {
        "Altitude(m)": 569671.4057023249,
        "Argument of Periapsis(deg)": 0.0010457354385337105,
        "Eccentricity": 0.0,
        "Inclination(deg)": 53.0,
        "Latitude(deg)": -47.65245909045645,
        "Longitude(deg)": 30.214647859502893,
        "Mean Anomaly(deg)": -112.66500638932989,
        "RAAN(deg)": 254.9984436897676,
        "Satellite Name": "Starlink Shell 1 1137",
        "Satellite Number": 1137,
        "Semi-Major Axis(m)": 6931778.249405717,
        "Time(s)": 30
    },
    {
        "Altitude(m)": 569785.1939530985,
        "Argument of Periapsis(deg)": 0.0013943139180449475,
        "Eccentricity": 0.0,
        "Inclination(deg)": 53.0,
        "Latitude(deg)": -47.9338244667483,
        "Longitude(deg)": 31.002006229102616,
        "Mean Anomaly(deg)": -112.0381751857731,
        "RAAN(deg)": 254.99792491969012,
        "Satellite Name": "Starlink Shell 1 1137",
        "Satellite Number": 1137,
        "Semi-Major Axis(m)": 6931778.249405717,
        "Time(s)": 40
    },
    {
        "Altitude(m)": 569896.3210774692,
        "Argument of Periapsis(deg)": 0.0017428923975561844,
        "Eccentricity": 0.0,
        "Inclination(deg)": 53.0,
        "Latitude(deg)": -48.209130871552546,
        "Longitude(deg)": 31.798286600575327,
        "Mean Anomaly(deg)": -111.4113439822165,
        "RAAN(deg)": 254.99740614961266,
        "Satellite Name": "Starlink Shell 1 1137",
        "Satellite Number": 1137,
        "Semi-Major Axis(m)": 6931778.249405717,
        "Time(s)": 50
    },
    {
        "Altitude(m)": 570004.7430156918,
        "Argument of Periapsis(deg)": 0.002091470877067421,
        "Eccentricity": 0.0,
        "Inclination(deg)": 53.0,
        "Latitude(deg)": -48.47825575359996,
        "Longitude(deg)": 32.60347214645334,
        "Mean Anomaly(deg)": -110.78451277865982,
        "RAAN(deg)": 254.9968873795352,
        "Satellite Name": "Starlink Shell 1 1137",
        "Satellite Number": 1137,
        "Semi-Major Axis(m)": 6931778.249405717,
        "Time(s)": 60
    },
    {
        "Altitude(m)": 570110.4167604814,
        "Argument of Periapsis(deg)": 0.0024400493565786582,
        "Eccentricity": 0.0,
        "Inclination(deg)": 53.0,
        "Latitude(deg)": -48.74107619585698,
        "Longitude(deg)": 33.41753490399488,
        "Mean Anomaly(deg)": -110.15768157510296,
        "RAAN(deg)": 254.9963686094577,
        "Satellite Name": "Starlink Shell 1 1137",
        "Satellite Number": 1137,
        "Semi-Major Axis(m)": 6931778.249405717,
        "Time(s)": 70
    },
    {
        "Altitude(m)": 570213.300375785,
        "Argument of Periapsis(deg)": 0.002788627836089895,
        "Eccentricity": 0.0,
        "Inclination(deg)": 53.0,
        "Latitude(deg)": -48.997469087976235,
        "Longitude(deg)": 34.24043423477395,
        "Mean Anomaly(deg)": -109.53085037154631,
        "RAAN(deg)": 254.99584983938024,
        "Satellite Name": "Starlink Shell 1 1137",
        "Satellite Number": 1137,
        "Semi-Major Axis(m)": 6931778.249405717,
        "Time(s)": 80
    },
    {
        "Altitude(m)": 570313.3530150956,
        "Argument of Periapsis(deg)": 0.0031372063156011316,
        "Eccentricity": 0.0,
        "Inclination(deg)": 53.0,
        "Latitude(deg)": -49.24731130973485,
        "Longitude(deg)": 35.0721168103079,
        "Mean Anomaly(deg)": -108.90401916798965,
        "RAAN(deg)": 254.99533106930275,
        "Satellite Name": "Starlink Shell 1 1137",
        "Satellite Number": 1137,
        "Semi-Major Axis(m)": 6931778.249405717,
        "Time(s)": 90
    },
    {
        "Altitude(m)": 570410.5349392548,
        "Argument of Periapsis(deg)": 0.0034857847951123688,
        "Eccentricity": 0.0,
        "Inclination(deg)": 53.0,
        "Latitude(deg)": -49.490479925365534,
        "Longitude(deg)": 35.91251661504866,
        "Mean Anomaly(deg)": -108.27718796443285,
        "RAAN(deg)": 254.99481229922526,
        "Satellite Name": "Starlink Shell 1 1137",
        "Satellite Number": 1137,
        "Semi-Major Axis(m)": 6931778.249405717,
        "Time(s)": 100
    },
    {
        "Altitude(m)": 570504.8075337845,
        "Argument of Periapsis(deg)": 0.003834363274623606,
        "Eccentricity": 0.0,
        "Inclination(deg)": 53.0,
        "Latitude(deg)": -49.72685238860296,
        "Longitude(deg)": 36.761553458305215,
        "Mean Anomaly(deg)": -107.65035676087614,
        "RAAN(deg)": 254.99429352914785,
        "Satellite Name": "Starlink Shell 1 1137",
        "Satellite Number": 1137,
        "Semi-Major Axis(m)": 6931778.249405717,
        "Time(s)": 110
    },
    {
        "Altitude(m)": 570596.133325711,
        "Argument of Periapsis(deg)": 0.004182941754134842,
        "Eccentricity": 0.0,
        "Inclination(deg)": 53.0,
        "Latitude(deg)": -49.956306758165084,
        "Longitude(deg)": 37.61913302549139,
        "Mean Anomaly(deg)": -107.02352555731947,
        "RAAN(deg)": 254.99377475907033,
        "Satellite Name": "Starlink Shell 1 1137",
        "Satellite Number": 1137,
        "Semi-Major Axis(m)": 6931778.249405717,
        "Time(s)": 120
    },
    {
        "Altitude(m)": 570684.4759998828,
        "Argument of Periapsis(deg)": 0.004531520233646079,
        "Eccentricity": 0.0,
        "Inclination(deg)": 53.0,
        "Latitude(deg)": -50.17872192329961,
        "Longitude(deg)": 38.48514696065211,
        "Mean Anomaly(deg)": -106.39669435376277,
        "RAAN(deg)": 254.99325598899284,
        "Satellite Name": "Starlink Shell 1 1137",
        "Satellite Number": 1137,
        "Semi-Major Axis(m)": 6931778.249405717,
        "Time(s)": 130
    },
    {
        "Altitude(m)": 570769.8004147691,
        "Argument of Periapsis(deg)": 0.0048800987131573164,
        "Eccentricity": 0.0,
        "Inclination(deg)": 53.0,
        "Latitude(deg)": -50.39397783892025,
        "Longitude(deg)": 39.35947147236261,
        "Mean Anomaly(deg)": -105.76986315020594,
        "RAAN(deg)": 254.99273721891544,
        "Satellite Name": "Starlink Shell 1 1137",
        "Satellite Number": 1137,
        "Semi-Major Axis(m)": 6931778.249405717,
        "Time(s)": 140
    },
    {
        "Altitude(m)": 570852.0726177738,
        "Argument of Periapsis(deg)": 0.005228677192668553,
        "Eccentricity": 0.0,
        "Inclination(deg)": 53.0,
        "Latitude(deg)": -50.60195576974249,
        "Longitude(deg)": 40.24196749380101,
        "Mean Anomaly(deg)": -105.14303194664927,
        "RAAN(deg)": 254.99221844883795,
        "Satellite Name": "Starlink Shell 1 1137",
        "Satellite Number": 1137,
        "Semi-Major Axis(m)": 6931778.249405717,
        "Time(s)": 150
    },
    {
        "Altitude(m)": 570931.259859978,
        "Argument of Periapsis(deg)": 0.00557725567217979,
        "Eccentricity": 0.0,
        "Inclination(deg)": 53.0,
        "Latitude(deg)": -50.80253854272307,
        "Longitude(deg)": 41.13248088922382,
        "Mean Anomaly(deg)": -104.5162007430926,
        "RAAN(deg)": 254.99169967876045,
        "Satellite Name": "Starlink Shell 1 1137",
        "Satellite Number": 1137,
        "Semi-Major Axis(m)": 6931778.249405717,
        "Time(s)": 160
    },
    {
        "Altitude(m)": 571007.3306103883,
        "Argument of Periapsis(deg)": 0.0059258341516910265,
        "Eccentricity": 0.0,
        "Inclination(deg)": 53.0,
        "Latitude(deg)": -50.99561080699179,
        "Longitude(deg)": 42.030841199048496,
        "Mean Anomaly(deg)": -103.88936953953579,
        "RAAN(deg)": 254.991180908683,
        "Satellite Name": "Starlink Shell 1 1137",
        "Satellite Number": 1137,
        "Semi-Major Axis(m)": 6931778.249405717,
        "Time(s)": 170
    },
    {
        "Altitude(m)": 571080.2545696329,
        "Argument of Periapsis(deg)": 0.006274412631202263,
        "Eccentricity": 0.0,
        "Inclination(deg)": 53.0,
        "Latitude(deg)": -51.18105930034151,
        "Longitude(deg)": 42.93686195428449,
        "Mean Anomaly(deg)": -103.26253833597909,
        "RAAN(deg)": 254.9906621386055,
        "Satellite Name": "Starlink Shell 1 1137",
        "Satellite Number": 1137,
        "Semi-Major Axis(m)": 6931778.249405717,
        "Time(s)": 180
    }
]